[{"OBJECT_NAME":"STARLINK-31075","OBJECT_ID":"2023-200F","EPOCH":"2026-03-08T08:38:08.441952","MEAN_MOTION":15.26747945,"ECCENTRICITY":0.00017182,"INCLINATION":43.0013,"RA_OF_ASC_NODE":175.8265,"ARG_OF_PERICENTER":190.316,"MEAN_ANOMALY":169.7657,"EPHEMERIS_TYPE":0,"CLASSIFICATION_TYPE":"U","NORAD_CAT_ID":58594,"ELEMENT_SET_NO":999,"REV_AT_EPOCH":12341,"BSTAR":2.009507e-5,"MEAN_MOTION_DOT":2.79e-6,"MEAN_MOTION_DDOT":0},{"OBJECT_NAME":"STARLINK-36554","OBJECT_ID":"2026-012K","EPOCH":"2026-03-08T17:06:15.871680","MEAN_MOTION":15.27591469,"ECCENTRICITY":6.955e-5,"INCLINATION":42.9934,"RA_OF_ASC_NODE":319.8184,"ARG_OF_PERICENTER":339.2059,"MEAN_ANOMALY":20.8765,"EPHEMERIS_TYPE":0,"CLASSIFICATION_TYPE":"U","NORAD_CAT_ID":67502,"ELEMENT_SET_NO":999,"REV_AT_EPOCH":761,"BSTAR":0.0011969118,"MEAN_MOTION_DOT":0.00032833,"MEAN_MOTION_DDOT":0}]
